{"_default": { "12": {"norad_id": "43111", "name": "CARTOSAT 2F", "tle1": "1 43111U 18004A   26199.82351912  .00002348  00000-0  11486-3 0  9991", "tle2": "2 43111  97.4767 259.1460 0002504 127.2617 232.8847 15.19189867472132", "object_type": "PAYLOAD", "criticality_score": 9.0, "last_updated": "2026-07-19T02:53:59.007202+00:00", "maneuver_count": 0, "owner": "IND"}, "44": {"norad_id": "42847", "name": "CORVUS BC1", "tle1": "1 42847U 17042Y   26199.33971893  .00001649  00000-0  11518-3 0  9998", "tle2": "2 42847  97.4125   0.3212 0011325 348.7981  11.2993 15.06629317491789", "object_type": "PAYLOAD", "criticality_score": 9.0, "last_updated": "2026-07-19T02:53:59.007202+00:00", "maneuver_count": 0, "owner": "US"}, "45": {"norad_id": "42828", "name": "NORSAT 2", "tle1": "1 42828U 17042D   26199.71226009  .00005127  00000-0  22434-3 0  9995", "tle2": "2 42828  97.4062  12.6682 0008036 303.6494  56.3976 15.22464906492533", "object_type": "PAYLOAD", "criticality_score": 9.0, "last_updated": "2026-07-19T02:53:59.007202+00:00", "maneuver_count": 0, "owner": "NOR"}, "46": {"norad_id": "42767", "name": "CARTOSAT 2E", "tle1": "1 42767U 17036C   26199.85665760  .00001332  00000-0  66371-4 0  9999", "tle2": "2 42767  97.4253 259.1338 0003598 174.7811 185.3461 15.19267421502950", "object_type": "PAYLOAD", "criticality_score": 9.0, "last_updated": "2026-07-19T02:53:59.007202+00:00", "maneuver_count": 0, "owner": "IND"}, "80": {"norad_id": "43017", "name": "AO-91", "tle1": "1 43017U 17073E   26199.88865458  .00003432  00000-0  15125-3 0  9991", "tle2": "2 43017  97.4662  66.4574 0148370 218.5900 140.4654 15.13090788470187", "object_type": "PAYLOAD", "criticality_score": 9.0, "last_updated": "2026-07-19T02:53:59.007202+00:00", "maneuver_count": 0, "owner": "US"}, "81": {"norad_id": "43012", "name": "CZ-4C R/B", "tle1": "1 43012U 17072C   26199.79811839  .00000128  00000-0  35603-4 0  9992", "tle2": "2 43012  98.5816 308.8352 0123293  54.9133 306.3553 14.58810723461244", "object_type": "ROCKET_BODY", "criticality_score": 9.0, "last_updated": "2026-07-19T02:53:59.007202+00:00", "maneuver_count": 0, "owner": "PRC"}, "82": {"norad_id": "42829", "name": "TECHNOSAT", "tle1": "1 42829U 17042E   26199.69660095  .00001247  00000-0  91546-4 0  9990", "tle2": "2 42829  97.4323 356.1645 0017091 352.0472   8.0481 15.05121620491442", "object_type": "PAYLOAD", "criticality_score": 9.0, "last_updated": "2026-07-19T02:53:59.007202+00:00", "maneuver_count": 0, "owner": "GER"}, "83": {"norad_id": "42794", "name": "DSAT", "tle1": "1 42794U 17036AF  26199.88614272  .00005174  00000-0  24019-3 0  9994", "tle2": "2 42794  97.5581 178.7250 0082552  52.7763 308.0966 15.17432114495666", "object_type": "PAYLOAD", "criticality_score": 9.0, "last_updated": "2026-07-19T02:53:59.007202+00:00", "maneuver_count": 0, "owner": "IT"}, "107": {"norad_id": "42831", "name": "FLYING LAPTOP", "tle1": "1 42831U 17042G   26199.84580237  .00002162  00000-0  17183-3 0  9990", "tle2": "2 42831  97.4827 354.1910 0019537  20.8806 339.3212 15.01328064491208", "object_type": "PAYLOAD", "criticality_score": 9.0, "last_updated": "2026-07-19T02:53:59.007202+00:00", "maneuver_count": 0, "owner": "GER"}, "150": {"norad_id": "42846", "name": "CORVUS BC2", "tle1": "1 42846U 17042X   26199.74706546  .00001156  00000-0  82279-4 0  9999", "tle2": "2 42846  97.4094 359.8787 0013081  10.9554 349.1956 15.06465351491819", "object_type": "PAYLOAD", "criticality_score": 9.0, "last_updated": "2026-07-19T02:53:59.007202+00:00", "maneuver_count": 0, "owner": "US"}, "180": {"norad_id": "43016", "name": "MAKERSAT 0", "tle1": "1 43016U 17073D   26199.58482991  .00010616  00000-0  27996-3 0  9995", "tle2": "2 43016  97.4572  82.3624 0105621 160.2361 200.3022 15.33085965471274", "object_type": "PAYLOAD", "criticality_score": 9.0, "last_updated": "2026-07-19T02:53:59.007202+00:00", "maneuver_count": 0, "owner": "US"}, "191": {"norad_id": "43022", "name": "JILIN-01-04", "tle1": "1 43022U 17074A   26199.80163176  .00007835  00000-0  17862-3 0  9999", "tle2": "2 43022  97.4879 310.2782 0005219  91.0723 269.1122 15.43190789479144", "object_type": "PAYLOAD", "criticality_score": 9.0, "last_updated": "2026-07-19T02:53:59.007202+00:00", "maneuver_count": 0, "owner": "PRC"}, "192": {"norad_id": "43023", "name": "JILIN-01-05", "tle1": "1 43023U 17074B   26199.82119211  .00004106  00000-0  12601-3 0  9997", "tle2": "2 43023  97.4882 306.4163 0006571 114.7333 245.4594 15.34317751478858", "object_type": "PAYLOAD", "criticality_score": 9.0, "last_updated": "2026-07-19T02:53:59.007202+00:00", "maneuver_count": 0, "owner": "PRC"}, "193": {"norad_id": "43024", "name": "JILIN-01-06", "tle1": "1 43024U 17074C   26199.79779095  .00003452  00000-0  10728-3 0  9997", "tle2": "2 43024  97.4806 303.3593 0008274 123.4570 236.7464 15.34021038478680", "object_type": "PAYLOAD", "criticality_score": 9.0, "last_updated": "2026-07-19T02:53:59.007202+00:00", "maneuver_count": 0, "owner": "PRC"}, "194": {"norad_id": "43159", "name": "JILIN-01-07", "tle1": "1 43159U 18008E   26199.84041750  .00004675  00000-0  13905-3 0  9998", "tle2": "2 43159  97.1767 218.9342 0006423 312.0591  48.0106 15.35199221469855", "object_type": "PAYLOAD", "criticality_score": 9.0, "last_updated": "2026-07-19T02:53:59.007202+00:00", "maneuver_count": 0, "owner": "PRC"}, "195": {"norad_id": "43160", "name": "JILIN-01-08", "tle1": "1 43160U 18008F   26199.86320878  .00003236  00000-0  10056-3 0  9999", "tle2": "2 43160  97.1804 218.2366 0004876 337.5500  22.5529 15.34034120469806", "object_type": "PAYLOAD", "criticality_score": 9.0, "last_updated": "2026-07-19T02:53:59.007202+00:00", "maneuver_count": 0, "owner": "PRC"}, "217": {"norad_id": "43010", "name": "FENGYUN 3D", "tle1": "1 43010U 17072A   26199.86094565 -.00000214  00000-0 -79314-4 0  9992", "tle2": "2 43010  99.0150 174.8590 0001336   6.2501 353.8691 14.19743935449485", "object_type": "PAYLOAD", "criticality_score": 9.0, "last_updated": "2026-07-19T02:53:59.007202+00:00", "maneuver_count": 0, "owner": "PRC"}, "221": {"norad_id": "43013", "name": "NOAA 20", "tle1": "1 43013U 17073A   26199.79063111  .00000026  00000-0  33271-4 0  9992", "tle2": "2 43013  98.7772 138.9734 0001516 120.6239 239.5086 14.19516873448952", "object_type": "PAYLOAD", "criticality_score": 9.0, "last_updated": "2026-07-19T02:53:59.007202+00:00", "maneuver_count": 0, "owner": "US"}, "232": {"norad_id": "42840", "name": "LEMUR 2 FURIAUS", "tle1": "1 42840U 17042R   26199.45805150  .00009448  00000-0  31589-3 0  9991", "tle2": "2 42840  97.3785  17.8461 0005695 315.3320  44.7462 15.31195052492990", "object_type": "PAYLOAD", "criticality_score": 9.0, "last_updated": "2026-07-19T02:53:59.007202+00:00", "maneuver_count": 0, "owner": "US"}, "239": {"norad_id": "42835", "name": "WNISAT 1R", "tle1": "1 42835U 17042L   26199.40690669  .00000306  00000-0  27853-4 0  9991", "tle2": "2 42835  97.4817 354.4137 0010433  54.5316 305.6882 15.01861207491199", "object_type": "PAYLOAD", "criticality_score": 9.0, "last_updated": "2026-07-19T02:53:59.007202+00:00", "maneuver_count": 0, "owner": "JPN"}, "293": {"norad_id": "43005", "name": "MOHAMMED VI-A", "tle1": "1 43005U 17070A   26199.84633851  .00000525  00000-0  81481-4 0  9990", "tle2": "2 43005  97.9544 271.7397 0001271  98.6254 261.5101 14.77105966468654", "object_type": "PAYLOAD", "criticality_score": 9.0, "last_updated": "2026-07-19T02:53:59.007202+00:00", "maneuver_count": 0, "owner": "MA"}, "348": {"norad_id": "43072", "name": "IRIDIUM 116", "tle1": "1 43072U 17083C   26199.82012926  .00000126  00000-0  38090-4 0  9995", "tle2": "2 43072  86.3989 308.7782 0002495 100.0325 260.1153 14.34216762448704", "object_type": "PAYLOAD", "criticality_score": 9.0, "last_updated": "2026-07-19T02:53:59.007202+00:00", "maneuver_count": 0, "owner": "US"}, "349": {"norad_id": "42803", "name": "IRIDIUM 113", "tle1": "1 42803U 17039A   26199.77573118  .00000055  00000-0  12659-4 0  9990", "tle2": "2 42803  86.3992 308.9768 0002130  93.0152 267.1288 14.34217629475710", "object_type": "PAYLOAD", "criticality_score": 9.0, "last_updated": "2026-07-19T02:53:59.007202+00:00", "maneuver_count": 0, "owner": "US"}, "350": {"norad_id": "43073", "name": "IRIDIUM 130", "tle1": "1 43073U 17083D   26199.78841757  .00000141  00000-0  43440-4 0  9995", "tle2": "2 43073  86.3995 309.0701 0002331 100.3469 259.7989 14.34218787448641", "object_type": "PAYLOAD", "criticality_score": 9.0, "last_updated": "2026-07-19T02:53:59.007202+00:00", "maneuver_count": 0, "owner": "US"}, "417": {"norad_id": "43152", "name": "ASNARO-2", "tle1": "1 43152U 18007A   26199.80097471  .00004345  00000-0  19097-3 0  9999", "tle2": "2 43152  97.3977 206.2345 0001746  91.4374 268.7062 15.22420243472220", "object_type": "PAYLOAD", "criticality_score": 9.0, "last_updated": "2026-07-19T02:53:59.007202+00:00", "maneuver_count": 0, "owner": "JPN"}, "419": {"norad_id": "43099", "name": "SUPERVIEW-1 03", "tle1": "1 43099U 18002A   26199.81372703  .00009200  00000-0  22187-3 0  9998", "tle2": "2 43099  97.3124 284.6245 0046674  68.4373 292.1838 15.40290869473238", "object_type": "PAYLOAD", "criticality_score": 9.0, "last_updated": "2026-07-19T02:53:59.007202+00:00", "maneuver_count": 0, "owner": "PRC"}, "437": {"norad_id": "42837", "name": "LEMUR 2 GREENBERG", "tle1": "1 42837U 17042N   26199.05111860  .00009701  00000-0  31416-3 0  9992", "tle2": "2 42837  97.3835  19.5561 0007323 247.3182 112.7286 15.32207983493115", "object_type": "PAYLOAD", "criticality_score": 9.0, "last_updated": "2026-07-19T02:53:59.007202+00:00", "maneuver_count": 0, "owner": "US"}, "499": {"norad_id": "43146", "name": "LKW-3", "tle1": "1 43146U 18006A   26199.85469716  .00008124  00000-0  23570-3 0  9991", "tle2": "2 43146  97.6646   1.6842 0003319 166.8353 193.2977 15.35797574473574", "object_type": "PAYLOAD", "criticality_score": 9.0, "last_updated": "2026-07-19T02:53:59.007202+00:00", "maneuver_count": 0, "owner": "PRC"}, "506": {"norad_id": "43080", "name": "LKW-2", "tle1": "1 43080U 17084A   26199.88576315  .00002717  00000-0  10604-3 0  9996", "tle2": "2 43080  97.1174 238.2052 0003861 112.6326 247.5322 15.26716326476525", "object_type": "PAYLOAD", "criticality_score": 9.0, "last_updated": "2026-07-19T02:53:59.007202+00:00", "maneuver_count": 0, "owner": "PRC"}, "527": {"norad_id": "42954", "name": "VRSS-2", "tle1": "1 42954U 17060A   26199.86959613  .00000646  00000-0  89125-4 0  9997", "tle2": "2 42954  97.6494 236.1679 0017096   1.9706 358.1571 14.81241667473144", "object_type": "PAYLOAD", "criticality_score": 9.0, "last_updated": "2026-07-19T02:53:59.007202+00:00", "maneuver_count": 0, "owner": "VENZ"}}}